$$SOE
2460728.500000000, A.D. 2025-Feb-22 00:00:00.0000, 1.372424579528789E+08, 5.281431201964124E+08, -3.407952359472394E+06,
2460735.500000000, A.D. 2025-Mar-01 00:00:00.0000, 1.317139068772852E+08, 5.287177423127258E+08, -3.113047861004829E+06,
2460742.500000000, A.D. 2025-Mar-08 00:00:00.0000, 1.261456867513887E+08, 5.291344602048895E+08, -2.817216994164526E+06,
2460749.500000000, A.D. 2025-Mar-15 00:00:00.0000, 1.205392754233181E+08, 5.293923373022771E+08, -2.520544904865503E+06,
2460756.500000000, A.D. 2025-Mar-22 00:00:00.0000, 1.148961556570408E+08, 5.294903849639566E+08, -2.223117144636989E+06,
2460763.500000000, A.D. 2025-Mar-29 00:00:00.0000, 1.092178166733380E+08, 5.294275591798989E+08, -1.925019871745646E+06,
2460770.500000000, A.D. 2025-Apr-05 00:00:00.0000, 1.035057574534732E+08, 5.292027580514475E+08, -1.626340139323771E+06,
2460777.500000000, A.D. 2025-Apr-12 00:00:00.0000, 9.776148989168245E+07, 5.288148201485546E+08, -1.327166086351454E+06,
2460784.500000000, A.D. 2025-Apr-19 00:00:00.0000, 9.198654162141678E+07, 5.282625228553491E+08, -1.027587087283671E+06,
2460791.500000000, A.D. 2025-Apr-26 00:00:00.0000, 8.618245879994354E+07, 5.275445804939291E+08, -7.276939027968049E+05,
2460798.500000000, A.D. 2025-May-03 00:00:00.0000, 8.035080897904941E+07, 5.266596422381168E+08, -4.275788415080011E+05,
2460805.500000000, A.D. 2025-May-10 00:00:00.0000, 7.449318410568677E+07, 5.256062898177779E+08, -1.273359356037378E+05,
2460812.500000000, A.D. 2025-May-17 00:00:00.0000, 6.861120370582318E+07, 5.243830349638901E+08, 1.729388618554175E+05,
2460819.500000000, A.D. 2025-May-24 00:00:00.0000, 6.270651844333097E+07, 5.229883165303774E+08, 4.731474364734292E+05,
2460826.500000000, A.D. 2025-May-31 00:00:00.0000, 5.678081449121244E+07, 5.214204975936261E+08, 7.731892148608863E+05,
2460833.500000000, A.D. 2025-Jun-07 00:00:00.0000, 5.083581833601184E+07, 5.196778637239329E+08, 1.072960943742245E+06,
2460840.500000000, A.D. 2025-Jun-14 00:00:00.0000, 4.487329967537528E+07, 5.177586217493552E+08, 1.372356706820667E+06,
2460847.500000000, A.D. 2025-Jun-21 00:00:00.0000, 3.889507365100553E+07, 5.156608957255611E+08, 1.671267799156994E+06,
2460854.500000000, A.D. 2025-Jun-28 00:00:00.0000, 3.290300557281264E+07, 5.133827218628676E+08, 1.969582314880103E+06,
2460861.500000000, A.D. 2025-Jul-05 00:00:00.0000, 2.689901665004414E+07, 5.109220445526016E+08, 2.267184761726499E+06,
2460868.500000000, A.D. 2025-Jul-12 00:00:00.0000, 2.088508957429511E+07, 5.082767126699783E+08, 2.563955743886620E+06,
2460875.500000000, A.D. 2025-Jul-19 00:00:00.0000, 1.486327418320625E+07, 5.054444755594484E+08, 2.859771646684527E+06,
2460882.500000000, A.D. 2025-Jul-26 00:00:00.0000, 8.835693458517732E+06, 5.024229786257856E+08, 3.154504296881169E+06,
2460889.500000000, A.D. 2025-Aug-02 00:00:00.0000, 2.804549972875723E+06, 4.992097585308375E+08, 3.448020591763884E+06,
2460896.500000000, A.D. 2025-Aug-09 00:00:00.0000, -3.227867136175947E+06, 4.958022379578292E+08, 3.740182090776443E+06,
2460903.500000000, A.D. 2025-Aug-16 00:00:00.0000, -9.259174526177671E+06, 4.921977198545693E+08, 4.030844554216892E+06,
2460910.500000000, A.D. 2025-Aug-23 00:00:00.0000, -1.528688598126863E+07, 4.883933811445022E+08, 4.319857399870872E+06,
2460917.500000000, A.D. 2025-Aug-30 00:00:00.0000, -2.130840230723749E+07, 4.843862665900072E+08, 4.607063101617515E+06,
2460924.500000000, A.D. 2025-Sep-06 00:00:00.0000, -2.732100111768807E+07, 4.801732837759573E+08, 4.892296737013400E+06,
2460931.500000000, A.D. 2025-Sep-13 00:00:00.0000, -3.332182807858896E+07, 4.757511966923663E+08, 5.175385628754675E+06,
2460938.500000000, A.D. 2025-Sep-20 00:00:00.0000, -3.930788622349469E+07, 4.711166162283330E+08, 5.456148639523417E+06,
2460945.500000000, A.D. 2025-Sep-27 00:00:00.0000, -4.527602215185374E+07, 4.662659906461844E+08, 5.734395270527452E+06,
2460952.500000000, A.D. 2025-Oct-04 00:00:00.0000, -5.122291097800000E+07, 4.611955965298629E+08, 6.009924784708619E+06,
2460959.500000000, A.D. 2025-Oct-11 00:00:00.0000, -5.714504023377302E+07, 4.559015292155885E+08, 6.282525302645773E+06,
2460966.500000000, A.D. 2025-Oct-18 00:00:00.0000, -6.303869224456674E+07, 4.503796923789942E+08, 6.551972812091917E+06,
2460973.500000000, A.D. 2025-Oct-25 00:00:00.0000, -6.889992461183205E+07, 4.446257867349868E+08, 6.818030066880524E+06,
2460980.500000000, A.D. 2025-Nov-01 00:00:00.0000, -7.472454849944699E+07, 4.386352978068018E+08, 7.080445358509451E+06,
2460987.500000000, A.D. 2025-Nov-08 00:00:00.0000, -8.050810438487549E+07, 4.324034826697096E+08, 7.338951138075769E+06,
2460994.500000000, A.D. 2025-Nov-15 00:00:00.0000, -8.624583477410954E+07, 4.259253555443798E+08, 7.593262451023906E+06,
2461001.500000000, A.D. 2025-Nov-22 00:00:00.0000, -9.193265306704445E+07, 4.191956723916142E+08, 7.843075143522531E+06,
2461008.500000000, A.D. 2025-Nov-29 00:00:00.0000, -9.756310824729140E+07, 4.122089155756685E+08, 8.088063921391487E+06,
2461015.500000000, A.D. 2025-Dec-06 00:00:00.0000, -1.031313471106871E+08, 4.049592783951323E+08, 8.327880429002374E+06,
2461022.500000000, A.D. 2025-Dec-13 00:00:00.0000, -1.086310729347350E+08, 3.974406460461876E+08, 8.562150997615904E+06,
2461029.500000000, A.D. 2025-Dec-20 00:00:00.0000, -1.140554963167787E+08, 3.896465739840372E+08, 8.790473785281569E+06,
2461036.500000000, A.D. 2025-Dec-27 00:00:00.0000, -1.193972783322076E+08, 3.815702662376173E+08, 9.012415569756061E+06,
2461043.500000000, A.D. 2026-Jan-03 00:00:00.0000, -1.246484663711046E+08, 3.732045530473773E+08, 9.227508220109701E+06,
2461050.500000000, A.D. 2026-Jan-10 00:00:00.0000, -1.298004212306713E+08, 3.645418671635278E+08, 9.435244712964743E+06,
2461057.500000000, A.D. 2026-Jan-17 00:00:00.0000, -1.348437336601238E+08, 3.555742187790538E+08, 9.635074582862318E+06,
2461064.500000000, A.D. 2026-Jan-24 00:00:00.0000, -1.397681283934602E+08, 3.462931692583756E+08, 9.826398703609675E+06,
2461071.500000000, A.D. 2026-Jan-31 00:00:00.0000, -1.445623533724128E+08, 3.366898038970304E+08, 1.000856328027371E+07,
2461078.500000000, A.D. 2026-Feb-07 00:00:00.0000, -1.492140513457686E+08, 3.267547040487027E+08, 1.018085289984809E+07,
2461085.500000000, A.D. 2026-Feb-14 00:00:00.0000, -1.537096102464293E+08, 3.164779192136030E+08, 1.034248244498329E+07,
2461092.500000000, A.D. 2026-Feb-21 00:00:00.0000, -1.580339878740851E+08, 3.058489405800400E+08, 1.049258767485438E+07,
2461099.500000000, A.D. 2026-Feb-28 00:00:00.0000, -1.621705069614206E+08, 2.948566785211334E+08, 1.063021441414215E+07,
2461106.500000000, A.D. 2026-Mar-07 00:00:00.0000, -1.661006165155205E+08, 2.834894440588751E+08, 1.075430607028173E+07,
2461113.500000000, A.D. 2026-Mar-14 00:00:00.0000, -1.698036090322369E+08, 2.717349347805816E+08, 1.086368865490802E+07,
2461120.500000000, A.D. 2026-Mar-21 00:00:00.0000, -1.732562823595960E+08, 2.595802321512318E+08, 1.095705291777696E+07,
2461127.500000000, A.D. 2026-Mar-28 00:00:00.0000, -1.764325364902640E+08, 2.470118170783077E+08, 1.103293328824697E+07,
2461134.500000000, A.D. 2026-Apr-04 00:00:00.0000, -1.793028912661930E+08, 2.340156111350896E+08, 1.108968289453056E+07,
2461141.500000000, A.D. 2026-Apr-11 00:00:00.0000, -1.818339064909768E+08, 2.205770551273714E+08, 1.112544373758735E+07,
2461148.500000000, A.D. 2026-Apr-18 00:00:00.0000, -1.839874815787088E+08, 2.066812423943617E+08, 1.113811093953338E+07,
2461155.500000000, A.D. 2026-Apr-25 00:00:00.0000, -1.857200064917495E+08, 1.923131320902206E+08, 1.112528976722755E+07,
2461162.500000000, A.D. 2026-May-02 00:00:00.0000, -1.869813291812674E+08, 1.774578791804308E+08, 1.108424386903154E+07,
2461169.500000000, A.D. 2026-May-09 00:00:00.0000, -1.877134971849678E+08, 1.621013349221888E+08, 1.101183288283952E+07,
2461176.500000000, A.D. 2026-May-16 00:00:00.0000, -1.878492230368738E+08, 1.462307971943325E+08, 1.090443734390482E+07,
2461183.500000000, A.D. 2026-May-23 00:00:00.0000, -1.873100171030520E+08, 1.298361288034145E+08, 1.075786886233708E+07,
2461190.500000000, A.D. 2026-May-30 00:00:00.0000, -1.860039323835175E+08, 1.129114176739493E+08, 1.056726402160897E+07,
2461197.500000000, A.D. 2026-Jun-06 00:00:00.0000, -1.838228760688802E+08, 9.545743298031744E+07, 1.032696122713742E+07,
2461204.500000000, A.D. 2026-Jun-13 00:00:00.0000, -1.806394803397267E+08, 7.748525700885308E+07, 1.003036272501381E+07,
2461211.500000000, A.D. 2026-Jun-20 00:00:00.0000, -1.763036331631335E+08, 5.902164824270485E+07, 9.669791327792868E+06,
2461218.500000000, A.D. 2026-Jun-27 00:00:00.0000, -1.706389996625184E+08, 4.011691741943282E+07, 9.236364861437168E+06,
2461225.500000000, A.D. 2026-Jul-04 00:00:00.0000, -1.634403273419247E+08, 2.085635963371381E+07, 8.719937389673758E+06,
2461232.500000000, A.D. 2026-Jul-11 00:00:00.0000, -1.544732108882755E+08, 1.376465658253168E+06, 8.109203881754002E+06,
2461239.500000000, A.D. 2026-Jul-18 00:00:00.0000, -1.434795339123350E+08, -1.811310510470387E+07, 7.392144102829411E+06,
2461246.500000000, A.D. 2026-Jul-25 00:00:00.0000, -1.301941329065919E+08, -3.730227049353658E+07, 6.557093007067294E+06,
2461253.500000000, A.D. 2026-Aug-01 00:00:00.0000, -1.143807338847961E+08, -5.575264802697212E+07, 5.594826114379199E+06,
2461260.500000000, A.D. 2026-Aug-08 00:00:00.0000, -9.589510404897806E+07, -7.288227362871528E+07, 4.501980890196212E+06,
2461267.500000000, A.D. 2026-Aug-15 00:00:00.0000, -7.477415975649014E+07, -8.798775797327878E+07, 3.285568883391734E+06,
2461274.500000000, A.D. 2026-Aug-22 00:00:00.0000, -5.132481323649948E+07, -1.003321712771284E+08, 1.966999958570220E+06,
2461281.500000000, A.D. 2026-Aug-29 00:00:00.0000, -2.615526212721833E+07, -1.093002727881656E+08, 5.826028299009502E+05,
2461288.500000000, A.D. 2026-Sep-05 00:00:00.0000, -9.509725092092864E+04, -1.145626641986527E+08, -8.217484364854246E+05,
2461295.500000000, A.D. 2026-Sep-12 00:00:00.0000, 2.598031977960680E+07, -1.161534085633540E+08, -2.200402837732606E+06,
$$EOE